{
  "type": "FeatureCollection",
  "features": [
    {
      "type": "Feature",
      "properties": {
        "区县": "万州区",
        "区域": "渝东北"
      },
      "geometry": {
        "type": "Polygon",
        "coordinates": [
          [
            [
              108.28999999999999,
              30.72
            ],
            [
              108.47,
              30.72
            ],
            [
              108.47,
              30.9
            ],
            [
              108.28999999999999,
              30.9
            ],
            [
              108.28999999999999,
              30.72
            ]
          ]
        ]
      }
    },
    {
      "type": "Feature",
      "properties": {
        "区县": "涪陵区",
        "区域": "主城新区"
      },
      "geometry": {
        "type": "Polygon",
        "coordinates": [
          [
            [
              107.32000000000001,
              29.64
            ],
            [
              107.46,
              29.64
            ],
            [
              107.46,
              29.78
            ],
            [
              107.32000000000001,
              29.78
            ],
            [
              107.32000000000001,
              29.64
            ]
          ]
        ]
      }
    },
    {
      "type": "Feature",
      "properties": {
        "区县": "渝中区",
        "区域": "中心城区"
      },
      "geometry": {
        "type": "Polygon",
        "coordinates": [
          [
            [
              106.52999999999999,
              29.51
            ],
            [
              106.61,
              29.51
            ],
            [
              106.61,
              29.59
            ],
            [
              106.52999999999999,
              29.59
            ],
            [
              106.52999999999999,
              29.51
            ]
          ]
        ]
      }
    },
    {
      "type": "Feature",
      "properties": {
        "区县": "大渡口区",
        "区域": "中心城区"
      },
      "geometry": {
        "type": "Polygon",
        "coordinates": [
          [
            [
              106.44,
              29.44
            ],
            [
              106.52000000000001,
              29.44
            ],
            [
              106.52000000000001,
              29.52
            ],
            [
              106.44,
              29.52
            ],
            [
              106.44,
              29.44
            ]
          ]
        ]
      }
    },
    {
      "type": "Feature",
      "properties": {
        "区县": "江北区",
        "区域": "中心城区"
      },
      "geometry": {
        "type": "Polygon",
        "coordinates": [
          [
            [
              106.52999999999999,
              29.560000000000002
            ],
            [
              106.61,
              29.560000000000002
            ],
            [
              106.61,
              29.64
            ],
            [
              106.52999999999999,
              29.64
            ],
            [
              106.52999999999999,
              29.560000000000002
            ]
          ]
        ]
      }
    },
    {
      "type": "Feature",
      "properties": {
        "区县": "沙坪坝区",
        "区域": "中心城区"
      },
      "geometry": {
        "type": "Polygon",
        "coordinates": [
          [
            [
              106.41,
              29.5
            ],
            [
              106.49000000000001,
              29.5
            ],
            [
              106.49000000000001,
              29.58
            ],
            [
              106.41,
              29.58
            ],
            [
              106.41,
              29.5
            ]
          ]
        ]
      }
    },
    {
      "type": "Feature",
      "properties": {
        "区县": "九龙坡区",
        "区域": "中心城区"
      },
      "geometry": {
        "type": "Polygon",
        "coordinates": [
          [
            [
              106.47,
              29.46
            ],
            [
              106.55000000000001,
              29.46
            ],
            [
              106.55000000000001,
              29.54
            ],
            [
              106.47,
              29.54
            ],
            [
              106.47,
              29.46
            ]
          ]
        ]
      }
    },
    {
      "type": "Feature",
      "properties": {
        "区县": "南岸区",
        "区域": "中心城区"
      },
      "geometry": {
        "type": "Polygon",
        "coordinates": [
          [
            [
              106.52999999999999,
              29.48
            ],
            [
              106.61,
              29.48
            ],
            [
              106.61,
              29.56
            ],
            [
              106.52999999999999,
              29.56
            ],
            [
              106.52999999999999,
              29.48
            ]
          ]
        ]
      }
    },
    {
      "type": "Feature",
      "properties": {
        "区县": "北碚区",
        "区域": "中心城区"
      },
      "geometry": {
        "type": "Polygon",
        "coordinates": [
          [
            [
              106.36,
              29.76
            ],
            [
              106.44000000000001,
              29.76
            ],
            [
              106.44000000000001,
              29.84
            ],
            [
              106.36,
              29.84
            ],
            [
              106.36,
              29.76
            ]
          ]
        ]
      }
    },
    {
      "type": "Feature",
      "properties": {
        "区县": "綦江区",
        "区域": "主城新区"
      },
      "geometry": {
        "type": "Polygon",
        "coordinates": [
          [
            [
              106.58000000000001,
              28.96
            ],
            [
              106.72,
              28.96
            ],
            [
              106.72,
              29.1
            ],
            [
              106.58000000000001,
              29.1
            ],
            [
              106.58000000000001,
              28.96
            ]
          ]
        ]
      }
    },
    {
      "type": "Feature",
      "properties": {
        "区县": "大足区",
        "区域": "主城新区"
      },
      "geometry": {
        "type": "Polygon",
        "coordinates": [
          [
            [
              105.65,
              29.63
            ],
            [
              105.78999999999999,
              29.63
            ],
            [
              105.78999999999999,
              29.77
            ],
            [
              105.65,
              29.77
            ],
            [
              105.65,
              29.63
            ]
          ]
        ]
      }
    },
    {
      "type": "Feature",
      "properties": {
        "区县": "渝北区",
        "区域": "中心城区"
      },
      "geometry": {
        "type": "Polygon",
        "coordinates": [
          [
            [
              106.58999999999999,
              29.68
            ],
            [
              106.67,
              29.68
            ],
            [
              106.67,
              29.759999999999998
            ],
            [
              106.58999999999999,
              29.759999999999998
            ],
            [
              106.58999999999999,
              29.68
            ]
          ]
        ]
      }
    },
    {
      "type": "Feature",
      "properties": {
        "区县": "巴南区",
        "区域": "中心城区"
      },
      "geometry": {
        "type": "Polygon",
        "coordinates": [
          [
            [
              106.5,
              29.34
            ],
            [
              106.58000000000001,
              29.34
            ],
            [
              106.58000000000001,
              29.419999999999998
            ],
            [
              106.5,
              29.419999999999998
            ],
            [
              106.5,
              29.34
            ]
          ]
        ]
      }
    },
    {
      "type": "Feature",
      "properties": {
        "区县": "黔江区",
        "区域": "渝东南"
      },
      "geometry": {
        "type": "Polygon",
        "coordinates": [
          [
            [
              108.69,
              29.450000000000003
            ],
            [
              108.85,
              29.450000000000003
            ],
            [
              108.85,
              29.61
            ],
            [
              108.69,
              29.61
            ],
            [
              108.69,
              29.450000000000003
            ]
          ]
        ]
      }
    },
    {
      "type": "Feature",
      "properties": {
        "区县": "长寿区",
        "区域": "主城新区"
      },
      "geometry": {
        "type": "Polygon",
        "coordinates": [
          [
            [
              107.0,
              29.759999999999998
            ],
            [
              107.13999999999999,
              29.759999999999998
            ],
            [
              107.13999999999999,
              29.9
            ],
            [
              107.0,
              29.9
            ],
            [
              107.0,
              29.759999999999998
            ]
          ]
        ]
      }
    },
    {
      "type": "Feature",
      "properties": {
        "区县": "江津区",
        "区域": "主城新区"
      },
      "geometry": {
        "type": "Polygon",
        "coordinates": [
          [
            [
              106.19000000000001,
              29.22
            ],
            [
              106.33,
              29.22
            ],
            [
              106.33,
              29.36
            ],
            [
              106.19000000000001,
              29.36
            ],
            [
              106.19000000000001,
              29.22
            ]
          ]
        ]
      }
    },
    {
      "type": "Feature",
      "properties": {
        "区县": "合川区",
        "区域": "主城新区"
      },
      "geometry": {
        "type": "Polygon",
        "coordinates": [
          [
            [
              106.2,
              29.93
            ],
            [
              106.33999999999999,
              29.93
            ],
            [
              106.33999999999999,
              30.07
            ],
            [
              106.2,
              30.07
            ],
            [
              106.2,
              29.93
            ]
          ]
        ]
      }
    },
    {
      "type": "Feature",
      "properties": {
        "区县": "永川区",
        "区域": "主城新区"
      },
      "geometry": {
        "type": "Polygon",
        "coordinates": [
          [
            [
              105.82000000000001,
              29.29
            ],
            [
              105.96,
              29.29
            ],
            [
              105.96,
              29.43
            ],
            [
              105.82000000000001,
              29.43
            ],
            [
              105.82000000000001,
              29.29
            ]
          ]
        ]
      }
    },
    {
      "type": "Feature",
      "properties": {
        "区县": "南川区",
        "区域": "主城新区"
      },
      "geometry": {
        "type": "Polygon",
        "coordinates": [
          [
            [
              107.03,
              29.09
            ],
            [
              107.16999999999999,
              29.09
            ],
            [
              107.16999999999999,
              29.23
            ],
            [
              107.03,
              29.23
            ],
            [
              107.03,
              29.09
            ]
          ]
        ]
      }
    },
    {
      "type": "Feature",
      "properties": {
        "区县": "璧山区",
        "区域": "主城新区"
      },
      "geometry": {
        "type": "Polygon",
        "coordinates": [
          [
            [
              106.16000000000001,
              29.52
            ],
            [
              106.3,
              29.52
            ],
            [
              106.3,
              29.66
            ],
            [
              106.16000000000001,
              29.66
            ],
            [
              106.16000000000001,
              29.52
            ]
          ]
        ]
      }
    },
    {
      "type": "Feature",
      "properties": {
        "区县": "铜梁区",
        "区域": "主城新区"
      },
      "geometry": {
        "type": "Polygon",
        "coordinates": [
          [
            [
              105.99000000000001,
              29.77
            ],
            [
              106.13,
              29.77
            ],
            [
              106.13,
              29.91
            ],
            [
              105.99000000000001,
              29.91
            ],
            [
              105.99000000000001,
              29.77
            ]
          ]
        ]
      }
    },
    {
      "type": "Feature",
      "properties": {
        "区县": "潼南区",
        "区域": "主城新区"
      },
      "geometry": {
        "type": "Polygon",
        "coordinates": [
          [
            [
              105.77000000000001,
              30.12
            ],
            [
              105.91,
              30.12
            ],
            [
              105.91,
              30.26
            ],
            [
              105.77000000000001,
              30.26
            ],
            [
              105.77000000000001,
              30.12
            ]
          ]
        ]
      }
    },
    {
      "type": "Feature",
      "properties": {
        "区县": "荣昌区",
        "区域": "主城新区"
      },
      "geometry": {
        "type": "Polygon",
        "coordinates": [
          [
            [
              105.53,
              29.33
            ],
            [
              105.66999999999999,
              29.33
            ],
            [
              105.66999999999999,
              29.47
            ],
            [
              105.53,
              29.47
            ],
            [
              105.53,
              29.33
            ]
          ]
        ]
      }
    },
    {
      "type": "Feature",
      "properties": {
        "区县": "开州区",
        "区域": "渝东北"
      },
      "geometry": {
        "type": "Polygon",
        "coordinates": [
          [
            [
              108.32,
              31.09
            ],
            [
              108.5,
              31.09
            ],
            [
              108.5,
              31.27
            ],
            [
              108.32,
              31.27
            ],
            [
              108.32,
              31.09
            ]
          ]
        ]
      }
    },
    {
      "type": "Feature",
      "properties": {
        "区县": "梁平区",
        "区域": "渝东北"
      },
      "geometry": {
        "type": "Polygon",
        "coordinates": [
          [
            [
              107.7,
              30.580000000000002
            ],
            [
              107.88000000000001,
              30.580000000000002
            ],
            [
              107.88000000000001,
              30.76
            ],
            [
              107.7,
              30.76
            ],
            [
              107.7,
              30.580000000000002
            ]
          ]
        ]
      }
    },
    {
      "type": "Feature",
      "properties": {
        "区县": "武隆区",
        "区域": "渝东南"
      },
      "geometry": {
        "type": "Polygon",
        "coordinates": [
          [
            [
              107.67,
              29.25
            ],
            [
              107.83,
              29.25
            ],
            [
              107.83,
              29.409999999999997
            ],
            [
              107.67,
              29.409999999999997
            ],
            [
              107.67,
              29.25
            ]
          ]
        ]
      }
    },
    {
      "type": "Feature",
      "properties": {
        "区县": "城口县",
        "区域": "渝东北"
      },
      "geometry": {
        "type": "Polygon",
        "coordinates": [
          [
            [
              108.57,
              31.86
            ],
            [
              108.75,
              31.86
            ],
            [
              108.75,
              32.04
            ],
            [
              108.57,
              32.04
            ],
            [
              108.57,
              31.86
            ]
          ]
        ]
      }
    },
    {
      "type": "Feature",
      "properties": {
        "区县": "丰都县",
        "区域": "渝东北"
      },
      "geometry": {
        "type": "Polygon",
        "coordinates": [
          [
            [
              107.64,
              29.77
            ],
            [
              107.82000000000001,
              29.77
            ],
            [
              107.82000000000001,
              29.95
            ],
            [
              107.64,
              29.95
            ],
            [
              107.64,
              29.77
            ]
          ]
        ]
      }
    },
    {
      "type": "Feature",
      "properties": {
        "区县": "垫江县",
        "区域": "渝东北"
      },
      "geometry": {
        "type": "Polygon",
        "coordinates": [
          [
            [
              107.25,
              30.24
            ],
            [
              107.43,
              30.24
            ],
            [
              107.43,
              30.419999999999998
            ],
            [
              107.25,
              30.419999999999998
            ],
            [
              107.25,
              30.24
            ]
          ]
        ]
      }
    },
    {
      "type": "Feature",
      "properties": {
        "区县": "忠县",
        "区域": "渝东北"
      },
      "geometry": {
        "type": "Polygon",
        "coordinates": [
          [
            [
              107.95,
              30.2
            ],
            [
              108.13000000000001,
              30.2
            ],
            [
              108.13000000000001,
              30.38
            ],
            [
              107.95,
              30.38
            ],
            [
              107.95,
              30.2
            ]
          ]
        ]
      }
    },
    {
      "type": "Feature",
      "properties": {
        "区县": "云阳县",
        "区域": "渝东北"
      },
      "geometry": {
        "type": "Polygon",
        "coordinates": [
          [
            [
              108.61,
              30.84
            ],
            [
              108.79,
              30.84
            ],
            [
              108.79,
              31.02
            ],
            [
              108.61,
              31.02
            ],
            [
              108.61,
              30.84
            ]
          ]
        ]
      }
    },
    {
      "type": "Feature",
      "properties": {
        "区县": "奉节县",
        "区域": "渝东北"
      },
      "geometry": {
        "type": "Polygon",
        "coordinates": [
          [
            [
              109.36999999999999,
              30.93
            ],
            [
              109.55,
              30.93
            ],
            [
              109.55,
              31.11
            ],
            [
              109.36999999999999,
              31.11
            ],
            [
              109.36999999999999,
              30.93
            ]
          ]
        ]
      }
    },
    {
      "type": "Feature",
      "properties": {
        "区县": "巫山县",
        "区域": "渝东北"
      },
      "geometry": {
        "type": "Polygon",
        "coordinates": [
          [
            [
              109.78999999999999,
              30.99
            ],
            [
              109.97,
              30.99
            ],
            [
              109.97,
              31.169999999999998
            ],
            [
              109.78999999999999,
              31.169999999999998
            ],
            [
              109.78999999999999,
              30.99
            ]
          ]
        ]
      }
    },
    {
      "type": "Feature",
      "properties": {
        "区县": "巫溪县",
        "区域": "渝东北"
      },
      "geometry": {
        "type": "Polygon",
        "coordinates": [
          [
            [
              109.53999999999999,
              31.31
            ],
            [
              109.72,
              31.31
            ],
            [
              109.72,
              31.49
            ],
            [
              109.53999999999999,
              31.49
            ],
            [
              109.53999999999999,
              31.31
            ]
          ]
        ]
      }
    },
    {
      "type": "Feature",
      "properties": {
        "区县": "石柱县",
        "区域": "渝东南"
      },
      "geometry": {
        "type": "Polygon",
        "coordinates": [
          [
            [
              108.03,
              29.91
            ],
            [
              108.19,
              29.91
            ],
            [
              108.19,
              30.069999999999997
            ],
            [
              108.03,
              30.069999999999997
            ],
            [
              108.03,
              29.91
            ]
          ]
        ]
      }
    },
    {
      "type": "Feature",
      "properties": {
        "区县": "秀山县",
        "区域": "渝东南"
      },
      "geometry": {
        "type": "Polygon",
        "coordinates": [
          [
            [
              108.93,
              28.37
            ],
            [
              109.09,
              28.37
            ],
            [
              109.09,
              28.529999999999998
            ],
            [
              108.93,
              28.529999999999998
            ],
            [
              108.93,
              28.37
            ]
          ]
        ]
      }
    },
    {
      "type": "Feature",
      "properties": {
        "区县": "酉阳县",
        "区域": "渝东南"
      },
      "geometry": {
        "type": "Polygon",
        "coordinates": [
          [
            [
              108.69,
              28.76
            ],
            [
              108.85,
              28.76
            ],
            [
              108.85,
              28.919999999999998
            ],
            [
              108.69,
              28.919999999999998
            ],
            [
              108.69,
              28.76
            ]
          ]
        ]
      }
    },
    {
      "type": "Feature",
      "properties": {
        "区县": "彭水县",
        "区域": "渝东南"
      },
      "geometry": {
        "type": "Polygon",
        "coordinates": [
          [
            [
              108.09,
              29.21
            ],
            [
              108.25,
              29.21
            ],
            [
              108.25,
              29.369999999999997
            ],
            [
              108.09,
              29.369999999999997
            ],
            [
              108.09,
              29.21
            ]
          ]
        ]
      }
    }
  ]
}